[{"OBJECT_NAME":"IRIDIUM 165","OBJECT_ID":"2018-061D","EPOCH":"2026-03-09T12:28:22.404000","MEAN_MOTION":14.34217296,"ECCENTRICITY":0.00020877,"INCLINATION":86.3917,"RA_OF_ASC_NODE":98.4934,"ARG_OF_PERICENTER":96.9181,"MEAN_ANOMALY":263.2252,"EPHEMERIS_TYPE":0,"CLASSIFICATION_TYPE":"U","NORAD_CAT_ID":43572,"ELEMENT_SET_NO":999,"REV_AT_EPOCH":39910,"BSTAR":7.29473e-7,"MEAN_MOTION_DOT":2.2e-7,"MEAN_MOTION_DDOT":0},{"OBJECT_NAME":"NOAA 16 DEB","OBJECT_ID":"2000-055NW","EPOCH":"2026-03-08T09:29:39.969600","MEAN_MOTION":14.32113002,"ECCENTRICITY":0.00128778,"INCLINATION":98.6327,"RA_OF_ASC_NODE":133.2487,"ARG_OF_PERICENTER":86.1822,"MEAN_ANOMALY":274.0833,"EPHEMERIS_TYPE":0,"CLASSIFICATION_TYPE":"U","NORAD_CAT_ID":41657,"ELEMENT_SET_NO":999,"REV_AT_EPOCH":51160,"BSTAR":0.0023667401,"MEAN_MOTION_DOT":6.331e-5,"MEAN_MOTION_DDOT":0}]
